FENGYUN 1C DEB          
1 37413U 99025EGF 17344.01480935  .00002501  00000-0  87159-3 0  9993
2 37413  98.6459 264.7653 0078447 295.2398  64.0670 14.34525704452506
